CCSDS_OMM_VERS,COMMENT,CREATION_DATE,ORIGINATOR,OBJECT_NAME,OBJECT_ID,CENTER_NAME,REF_FRAME,TIME_SYSTEM,MEAN_ELEMENT_THEORY,EPOCH,MEAN_MOTION,ECCENTRICITY,INCLINATION,RA_OF_ASC_NODE,ARG_OF_PERICENTER,MEAN_ANOMALY,EPHEMERIS_TYPE,CLASSIFICATION_TYPE,NORAD_CAT_ID,ELEMENT_SET_NO,REV_AT_EPOCH,BSTAR,MEAN_MOTION_DOT,MEAN_MOTION_DDOT,SEMIMAJOR_AXIS,PERIOD,APOAPSIS,PERIAPSIS,OBJECT_TYPE,RCS_SIZE,COUNTRY_CODE,LAUNCH_DATE,SITE,DECAY_DATE,FILE,GP_ID,TLE_LINE0,TLE_LINE1,TLE_LINE2
2,GENERATED VIA SPACE-TRACK.ORG API,2005-11-20T11:31:52,18 SPCS,BREEZE-M R/B,2000-029B,EARTH,TEME,UTC,SGP4,2005-11-19T09:39:56.411999,1.00391513,0.0259259,3.2107,76.1922,135.9481,225.805,0,U,26373,999,2002,0.0,-2.5e-07,0,42131.228,1434.384,36845.383,34660.803,ROCKET BODY,,CIS,2000-06-06,TTMTR,,206395,55512522,0 BREEZE-M R/B,1 26373U 00029B   05323.40273625 -.00000025  00000-0  00000+0 0  9991,2 26373 003.2107 076.1922 0259259 135.9481 225.8050 01.00391513 20025
2,GENERATED VIA SPACE-TRACK.ORG API,2005-11-22T06:10:34,18 SPCS,BREEZE-M R/B,2000-029B,EARTH,TEME,UTC,SGP4,2005-11-20T09:34:19.269696,1.00391784,0.0259276,3.2132,76.1861,135.9703,225.7967,0,U,26373,999,2003,0.0,-2.5e-07,0,42131.152,1434.38,36845.376,34660.657,ROCKET BODY,,CIS,2000-06-06,TTMTR,,207182,55533676,0 BREEZE-M R/B,1 26373U 00029B   05324.39883414 -.00000025 +00000-0 +00000-0 0  9994,2 26373 003.2132 076.1861 0259276 135.9703 225.7967 01.00391784020038
2,GENERATED VIA SPACE-TRACK.ORG API,2005-11-23T06:17:46,18 SPCS,BREEZE-M R/B,2000-029B,EARTH,TEME,UTC,SGP4,2005-11-21T09:28:43.613472,1.0039204,0.025927,3.2157,76.1793,135.9915,225.7972,0,U,26373,999,2004,0.0,-2.2e-07,0,42131.08,1434.376,36845.278,34660.613,ROCKET BODY,,CIS,2000-06-06,TTMTR,,207623,55546088,0 BREEZE-M R/B,1 26373U 00029B   05325.39494923 -.00000022 +00000-0 +00000-0 0  9995,2 26373 003.2157 076.1793 0259270 135.9915 225.7972 01.00392040020041
2,GENERATED VIA SPACE-TRACK.ORG API,2005-11-23T05:31:02,18 SPCS,BREEZE-M R/B,2000-029B,EARTH,TEME,UTC,SGP4,2005-11-22T09:23:08.225952,1.0039229,0.0259262,3.2182,76.1718,135.9947,225.8189,0,U,26373,999,2005,0.0,-1.9e-07,0,42131.01,1434.373,36845.172,34660.578,ROCKET BODY,,CIS,2000-06-06,TTMTR,,207562,55539611,0 BREEZE-M R/B,1 26373U 00029B   05326.39106743 -.00000019  00000-0  00000+0 0  9991,2 26373 003.2182 076.1718 0259262 135.9947 225.8189 01.00392290 20051
2,GENERATED VIA SPACE-TRACK.ORG API,2005-11-25T08:10:29,18 SPCS,BREEZE-M R/B,2000-029B,EARTH,TEME,UTC,SGP4,2005-11-23T09:17:31.804223,1.00392543,0.0259283,3.2207,76.1654,136.0209,225.8126,0,U,26373,999,2006,0.0,-1.4e-07,0,42130.939,1434.369,36845.188,34660.421,ROCKET BODY,,CIS,2000-06-06,TTMTR,,208303,55568385,0 BREEZE-M R/B,1 26373U 00029B   05327.38717366 -.00000014 +00000-0 +00000-0 0  9996,2 26373 003.2207 076.1654 0259283 136.0209 225.8126 01.00392543020067
2,GENERATED VIA SPACE-TRACK.ORG API,2005-11-27T07:10:23,18 SPCS,BREEZE-M R/B,2000-029B,EARTH,TEME,UTC,SGP4,2005-11-25T09:06:12.516191,1.00393016,0.0259322,3.2256,76.1519,136.07,225.7787,0,U,26373,999,2008,0.0001,-4e-08,0,42130.807,1434.362,36845.217,34660.128,ROCKET BODY,,CIS,2000-06-06,TTMTR,,208908,55589458,0 BREEZE-M R/B,1 26373U 00029B   05329.37931153 -.00000004 +00000-0 +10000-3 0  9992,2 26373 003.2256 076.1519 0259322 136.0700 225.7787 01.00393016020081
2,GENERATED VIA SPACE-TRACK.ORG API,2005-11-25T07:37:51,18 SPCS,BREEZE-M R/B,2000-029B,EARTH,TEME,UTC,SGP4,2005-11-25T09:06:12.606911,1.00393013,0.025931,3.2256,76.152,136.0712,225.7776,0,U,26373,999,2008,0.0,-4e-08,0,42130.808,1434.362,36845.167,34660.179,ROCKET BODY,,CIS,2000-06-06,TTMTR,,208263,55562156,0 BREEZE-M R/B,1 26373U 00029B   05329.37931258 -.00000004  00000-0  00000+0 0  9993,2 26373 003.2256 076.1520 0259310 136.0712 225.7776 01.00393013 20088
2,GENERATED VIA SPACE-TRACK.ORG API,2005-11-29T06:10:33,18 SPCS,BREEZE-M R/B,2000-029B,EARTH,TEME,UTC,SGP4,2005-11-27T08:54:39.570912,1.0039348,0.0259288,3.2305,76.139,136.1171,225.694,0,U,26373,999,2010,0.0001,5e-08,0,42130.677,1434.356,36844.94,34660.144,ROCKET BODY,,CIS,2000-06-06,TTMTR,,209576,55610685,0 BREEZE-M R/B,1 26373U 00029B   05331.37129133 +.00000005 +00000-0 +10000-3 0  9992,2 26373 003.2305 076.1390 0259288 136.1171 225.6940 01.00393480020105
2,GENERATED VIA SPACE-TRACK.ORG API,2005-11-28T06:13:40,18 SPCS,BREEZE-M R/B,2000-029B,EARTH,TEME,UTC,SGP4,2005-11-27T08:54:40.171392,1.00393472,0.0259278,3.2305,76.1384,136.1105,225.7033,0,U,26373,999,2010,0.0001,5e-08,0,42130.68,1434.356,36844.9,34660.189,ROCKET BODY,,CIS,2000-06-06,TTMTR,,209136,55599961,0 BREEZE-M R/B,1 26373U 00029B   05331.37129828 +.00000005 +00000-0 +10000-3 0  9993,2 26373 003.2305 076.1384 0259278 136.1105 225.7033 01.00393472020109
2,GENERATED VIA SPACE-TRACK.ORG API,2005-11-29T07:34:02,18 SPCS,BREEZE-M R/B,2000-029B,EARTH,TEME,UTC,SGP4,2005-11-28T08:48:48.758400,1.00393701,0.0259329,3.233,76.1324,136.1459,225.6288,0,U,26373,999,2011,0.0001,7e-08,0,42130.616,1434.352,36845.05,34659.911,ROCKET BODY,,CIS,2000-06-06,TTMTR,,209600,55611673,0 BREEZE-M R/B,1 26373U 00029B   05332.36723100  .00000007  00000-0  10000-3 0  9998,2 26373 003.2330 076.1324 0259329 136.1459 225.6288 01.00393701 20117
2,GENERATED VIA SPACE-TRACK.ORG API,2005-12-01T06:10:30,18 SPCS,BREEZE-M R/B,2000-029B,EARTH,TEME,UTC,SGP4,2005-11-29T08:42:56.079648,1.00393932,0.0259298,3.2355,76.1258,136.155,225.5788,0,U,26373,999,2012,0.0001,8e-08,0,42130.551,1434.349,36844.853,34659.979,ROCKET BODY,,CIS,2000-06-06,TTMTR,,210329,55633944,0 BREEZE-M R/B,1 26373U 00029B   05333.36314907 +.00000008 +00000-0 +10000-3 0  9991,2 26373 003.2355 076.1258 0259298 136.1550 225.5788 01.00393932020128
2,GENERATED VIA SPACE-TRACK.ORG API,2005-12-02T06:10:24,18 SPCS,BREEZE-M R/B,2000-029B,EARTH,TEME,UTC,SGP4,2005-11-30T08:37:02.606016,1.00394144,0.0259319,3.238,76.1197,136.1854,225.5023,0,U,26373,999,2013,0.0001,7e-08,0,42130.492,1434.346,36844.88,34659.833,ROCKET BODY,,CIS,2000-06-06,TTMTR,,210645,55643983,0 BREEZE-M R/B,1 26373U 00029B   05334.35905794 +.00000007 +00000-0 +10000-3 0  9990,2 26373 003.2380 076.1197 0259319 136.1854 225.5023 01.00394144020138
2,GENERATED VIA SPACE-TRACK.ORG API,2005-12-02T07:27:43,18 SPCS,BREEZE-M R/B,2000-029B,EARTH,TEME,UTC,SGP4,2005-12-01T08:31:11.312256,1.00394363,0.0259264,3.2404,76.1129,136.1881,225.4665,0,U,26373,999,2014,0.0001,4e-08,0,42130.43,1434.343,36844.586,34660.005,ROCKET BODY,,CIS,2000-06-06,TTMTR,,210680,55645291,0 BREEZE-M R/B,1 26373U 00029B   05335.35499204  .00000004  00000-0  10000-3 0  9992,2 26373 003.2404 076.1129 0259264 136.1881 225.4665 01.00394363 20144
2,GENERATED VIA SPACE-TRACK.ORG API,2005-12-05T08:10:33,18 SPCS,BREEZE-M R/B,2000-029B,EARTH,TEME,UTC,SGP4,2005-12-03T08:19:38.446464,1.00394761,0.0259274,3.2454,76.0992,136.228,225.3994,0,U,26373,999,2016,0.0001,-9e-08,0,42130.319,1434.337,36844.514,34659.854,ROCKET BODY,,CIS,2000-06-06,TTMTR,,211784,55678567,0 BREEZE-M R/B,1 26373U 00029B   05337.34697276 -.00000009 +00000-0 +10000-3 0  9998,2 26373 003.2454 076.0992 0259274 136.2280 225.3994 01.00394761020169
2,GENERATED VIA SPACE-TRACK.ORG API,2005-12-04T08:10:24,18 SPCS,BREEZE-M R/B,2000-029B,EARTH,TEME,UTC,SGP4,2005-12-03T08:19:38.809344,1.00394758,0.0259276,3.2454,76.0991,136.2339,225.3946,0,U,26373,999,2016,0.0001,-9e-08,0,42130.32,1434.337,36844.523,34659.847,ROCKET BODY,,CIS,2000-06-06,TTMTR,,211462,55667786,0 BREEZE-M R/B,1 26373U 00029B   05337.34697696 -.00000009 +00000-0 +10000-3 0  9994,2 26373 003.2454 076.0991 0259276 136.2339 225.3946 01.00394758020168
2,GENERATED VIA SPACE-TRACK.ORG API,2005-12-05T07:29:06,18 SPCS,BREEZE-M R/B,2000-029B,EARTH,TEME,UTC,SGP4,2005-12-04T08:13:58.809792,1.00394949,0.0259289,3.2479,76.0935,136.2556,225.386,0,U,26373,999,2017,0.0001,-1.8e-07,0,42130.266,1434.335,36844.523,34659.74,ROCKET BODY,,CIS,2000-06-06,TTMTR,,211731,55671997,0 BREEZE-M R/B,1 26373U 00029B   05338.34304178 -.00000018  00000-0  10000-3 0  9995,2 26373 003.2479 076.0935 0259289 136.2556 225.3860 01.00394949 20176
2,GENERATED VIA SPACE-TRACK.ORG API,2005-12-08T06:11:11,18 SPCS,BREEZE-M R/B,2000-029B,EARTH,TEME,UTC,SGP4,2005-12-06T08:02:47.059296,1.00395301,0.0259309,3.2529,76.0811,136.3031,225.4007,0,U,26373,999,2019,0.0001,-3.4e-07,0,42130.168,1434.33,36844.506,34659.56,ROCKET BODY,,CIS,2000-06-06,TTMTR,,212798,55705007,0 BREEZE-M R/B,1 26373U 00029B   05340.33526689 -.00000034 +00000-0 +10000-3 0  9998,2 26373 003.2529 076.0811 0259309 136.3031 225.4007 01.00395301020196
2,GENERATED VIA SPACE-TRACK.ORG API,2005-12-08T05:11:57,18 SPCS,BREEZE-M R/B,2000-029B,EARTH,TEME,UTC,SGP4,2005-12-08T07:51:30.095424,1.00395628,0.0259338,3.2578,76.069,136.3529,225.393,0,U,26373,999,2021,0.0001,-4.9e-07,0,42130.076,1434.325,36844.534,34659.348,ROCKET BODY,,CIS,2000-06-06,TTMTR,,212741,55698465,0 BREEZE-M R/B,1 26373U 00029B   05342.32743166 -.00000049  00000-0  10000-3 0  9996,2 26373 003.2578 076.0690 0259338 136.3529 225.3930 01.00395628 20218
2,GENERATED VIA SPACE-TRACK.ORG API,2005-12-10T09:10:27,18 SPCS,BREEZE-M R/B,2000-029B,EARTH,TEME,UTC,SGP4,2005-12-08T07:51:30.541248,1.00395624,0.0259331,3.2579,76.0695,136.3574,225.3893,0,U,26373,999,2021,0.0001,-4.9e-07,0,42130.078,1434.325,36844.506,34659.379,ROCKET BODY,,CIS,2000-06-06,TTMTR,,213497,55727198,0 BREEZE-M R/B,1 26373U 00029B   05342.32743682 -.00000049 +00000-0 +10000-3 0  9999,2 26373 003.2579 076.0695 0259331 136.3574 225.3893 01.00395624020211
2,GENERATED VIA SPACE-TRACK.ORG API,2005-12-11T08:10:28,18 SPCS,BREEZE-M R/B,2000-029B,EARTH,TEME,UTC,SGP4,2005-12-09T07:45:45.745631,1.00395774,0.0259344,3.2604,76.0645,136.3811,225.3594,0,U,26373,999,2022,0.0001,-5.5e-07,0,42130.036,1434.323,36844.518,34659.283,ROCKET BODY,,CIS,2000-06-06,TTMTR,,213847,55737603,0 BREEZE-M R/B,1 26373U 00029B   05343.32344613 -.00000055 +00000-0 +10000-3 0  9998,2 26373 003.2604 076.0645 0259344 136.3811 225.3594 01.00395774020228
